NORAD_CAT_ID,OBJECT_NAME,OBJECT_TYPE,EPOCH,MEAN_MOTION,ECCENTRICITY,INCLINATION,RA_OF_ASC_NODE,ARG_OF_PERICENTER,MEAN_ANOMALY,BSTAR,MEAN_MOTION_DOT,MEAN_MOTION_DDOT,TLE_LINE0,TLE_LINE1,TLE_LINE2,SEMIMAJOR_AXIS,PERIOD,APOGEE,PERIGEE,DECAYED
52263.0,STARLINK-3786,PAYLOAD,2023-09-18 20:43:19,15.08843667,0.0001484,53.2181,202.0644,102.7741,257.3418,8.9432e-05,1.136e-05,0.0,0 STARLINK-3786,1 52263U 22041C   23261.86342393  .00001136  00000-0  89432-4 0  9990,2 52263  53.2181 202.0644 0001484 102.7741 257.3418 15.08843667 78066,6917.869,95.437,540.761,538.708,0.0
52263.0,STARLINK-3786,PAYLOAD,2023-09-19 06:15:36,15.08867116,0.0001375,53.2173,200.2784,92.9064,267.2086,0.00025473,3.771e-05,0.0,0 STARLINK-3786,1 52263U 22041C   23262.26084205  .00003771  00000-0  25473-3 0  9991,2 52263  53.2173 200.2784 0001375  92.9064 267.2086 15.08867116 79336,6917.798,95.436,540.614,538.711,0.0
52263.0,STARLINK-3786,PAYLOAD,2023-09-19 18:58:43,15.08843326,0.0002633,53.2176,197.8996,79.1875,280.9414,7.0087e-05,8.27e-06,0.0,0 STARLINK-3786,1 52263U 22041C   23262.79078355  .00000827  00000-0  70087-4 0  9999,2 52263  53.2176 197.8996 0002633  79.1875 280.9414 15.08843326 79413,6917.87,95.437,541.557,537.914,0.0
52263.0,STARLINK-3786,PAYLOAD,2023-09-20 12:27:58,15.08835501,0.0001525,53.2186,194.6304,89.4313,270.6854,-2.9998e-05,-7.65e-06,0.0,0 STARLINK-3786,1 52263U 22041C   23263.51942917 -.00000765  00000-0 -29998-4 0  9992,2 52263  53.2186 194.6304 0001525  89.4313 270.6854 15.08835501 78310,6917.894,95.438,540.814,538.704,0.0
52263.0,STARLINK-3786,PAYLOAD,2023-09-21 01:11:05,15.08822742,0.0001606,53.2185,192.2527,94.1203,265.9972,-0.00028864,-4.877e-05,0.0,0 STARLINK-3786,1 52263U 22041C   23264.04937020 -.00004877  00000-0 -28864-3 0  9998,2 52263  53.2185 192.2527 0001606  94.1203 265.9972 15.08822742 79605,6917.933,95.439,540.909,538.687,0.0
52263.0,STARLINK-3786,PAYLOAD,2023-09-21 04:21:51,15.08826,0.0001527,53.2181,191.6573,90.1204,269.9964,-0.00025012,-4.265e-05,0.0,0 STARLINK-3786,1 52263U 22041C   23264.18184824 -.00004265  00000-0 -25012-3 0  9992,2 52263  53.2181 191.6573 0001527  90.1204 269.9964 15.08826000 78418,6917.923,95.438,540.845,538.732,0.0
52263.0,STARLINK-3786,PAYLOAD,2023-09-22 01:01:51,15.08836308,0.0001484,53.2178,187.7894,94.2706,265.8456,8.8151e-05,1.115e-05,0.0,0 STARLINK-3786,1 52263U 22041C   23265.04295903  .00001115  00000-0  88151-4 0  9992,2 52263  53.2178 187.7894 0001484  94.2706 265.8456 15.08836308 79751,6917.892,95.438,540.783,538.73,0.0
52263.0,STARLINK-3786,PAYLOAD,2023-09-22 05:48:00,15.08848944,0.0001335,53.2174,186.8976,111.3929,248.7206,0.00020928,3.045e-05,0.0,0 STARLINK-3786,1 52263U 22041C   23265.24166703  .00003045  00000-0  20928-3 0  9990,2 52263  53.2174 186.8976 0001335 111.3929 248.7206 15.08848944 79786,6917.853,95.437,540.642,538.795,0.0
52263.0,STARLINK-3786,PAYLOAD,2023-09-23 00:52:38,15.08840926,0.0001537,53.2184,183.3285,100.3558,259.7608,0.00029868,4.469e-05,0.0,0 STARLINK-3786,1 52263U 22041C   23266.03655608  .00004469  00000-0  29868-3 0  9998,2 52263  53.2184 183.3285 0001537 100.3558 259.7608 15.08840926 79906,6917.878,95.437,540.806,538.679,0.0
52263.0,STARLINK-3786,PAYLOAD,2023-09-24 03:54:11,15.08853862,0.0001507,53.2183,178.2746,97.6923,262.424,1.6824e-05,-2e-07,0.0,0 STARLINK-3786,1 52263U 22041C   23267.16263186 -.00000020  00000-0  16824-4 0  9998,2 52263  53.2183 178.2746 0001507  97.6923 262.4240 15.08853862 80077,6917.838,95.437,540.746,538.661,0.0
52263.0,STARLINK-3786,PAYLOAD,2023-09-24 18:12:40,15.0884249,0.0001517,53.2185,175.5982,106.7857,253.3302,2.3631e-05,8.8e-07,0.0,0 STARLINK-3786,1 52263U 22041C   23267.75879710  .00000088  00000-0  23631-4 0  9996,2 52263  53.2185 175.5982 0001517 106.7857 253.3302 15.08842490 80163,6917.873,95.437,540.787,538.688,0.0
52263.0,STARLINK-3786,PAYLOAD,2023-09-24 21:23:26,15.08848152,0.0001321,53.2174,175.0041,96.7088,263.4055,-4.2654e-05,-9.67e-06,0.0,0 STARLINK-3786,1 52263U 22041C   23267.89127490 -.00000967  00000-0 -42654-4 0  9996,2 52263  53.2174 175.0041 0001321  96.7088 263.4055 15.08848152 78973,6917.855,95.437,540.634,538.807,0.0
52263.0,STARLINK-3786,PAYLOAD,2023-09-24 22:58:49,15.08849493,0.0001309,53.2177,174.7068,91.581,268.5332,-2.7425e-05,-7.24e-06,0.0,0 STARLINK-3786,1 52263U 22041C   23267.95751362 -.00000724  00000-0 -27425-4 0  9994,2 52263  53.2177 174.7068 0001309  91.5810 268.5332 15.08849493 78987,6917.851,95.437,540.622,538.811,0.0
52263.0,STARLINK-3786,PAYLOAD,2023-09-25 21:14:12,15.08850394,0.0001309,53.2173,170.5433,90.2156,269.8986,5.5194e-05,5.91e-06,0.0,0 STARLINK-3786,1 52263U 22041C   23268.88486813  .00000591  00000-0  55194-4 0  9997,2 52263  53.2173 170.5433 0001309  90.2156 269.8986 15.08850394 79120,6917.849,95.437,540.619,538.808,0.0
52263.0,STARLINK-3786,PAYLOAD,2023-09-26 00:24:58,15.0885771,0.0001377,53.2168,169.9476,93.1093,267.0056,0.00010495,1.384e-05,0.0,0 STARLINK-3786,1 52263U 22041C   23269.01734147  .00001384  00000-0  10495-3 0  9994,2 52263  53.2168 169.9476 0001377  93.1093 267.0056 15.08857710 80354,6917.826,95.436,540.644,538.739,0.0
52263.0,STARLINK-3786,PAYLOAD,2023-09-26 03:35:44,15.08858873,0.0001465,53.2166,169.3515,95.14,264.9759,0.00012653,1.727e-05,0.0,0 STARLINK-3786,1 52263U 22041C   23269.14981920  .00001727  00000-0  12653-3 0  9990,2 52263  53.2166 169.3515 0001465  95.1400 264.9759 15.08858873 79166,6917.823,95.436,540.701,538.674,0.0
52263.0,STARLINK-3786,PAYLOAD,2023-09-26 17:54:13,15.08832381,9.19e-05,53.2163,166.6779,80.2128,279.8968,-0.00011135,-2.059e-05,0.0,0 STARLINK-3786,1 52263U 22041C   23269.74599490 -.00002059  00000-0 -11135-3 0  9998,2 52263  53.2163 166.6779 0000919  80.2128 279.8968 15.08832381 80468,6917.904,95.438,540.404,539.133,0.0
52263.0,STARLINK-3786,PAYLOAD,2023-09-26 21:04:59,15.08851131,0.0001474,53.216,166.0814,105.3941,254.7214,0.0001487,2.08e-05,0.0,0 STARLINK-3786,1 52263U 22041C   23269.87846564  .00002080  00000-0  14870-3 0  9990,2 52263  53.2160 166.0814 0001474 105.3941 254.7214 15.08851131 79275,6917.846,95.437,540.731,538.692,0.0
52263.0,STARLINK-3786,PAYLOAD,2023-09-27 00:15:45,15.08855628,0.0001358,53.216,165.4851,107.3616,252.7524,0.00020358,2.955e-05,0.0,0 STARLINK-3786,1 52263U 22041C   23270.01094230  .00002955  00000-0  20358-3 0  9992,2 52263  53.2160 165.4851 0001358 107.3616 252.7524 15.08855628 80506,6917.833,95.437,540.637,538.758,0.0
52263.0,STARLINK-3786,PAYLOAD,2023-09-27 09:48:04,15.08843425,0.0001677,53.216,163.6978,56.2067,303.9085,-2.5185e-05,-6.89e-06,0.0,0 STARLINK-3786,1 52263U 22041C   23270.40838624 -.00000689  00000-0 -25185-4 0  9996,2 52263  53.2160 163.6978 0001677  56.2067 303.9085 15.08843425 79356,6917.87,95.437,540.895,538.575,0.0
52263.0,STARLINK-3786,PAYLOAD,2023-09-27 22:31:11,15.08816468,0.0001611,53.2181,161.3335,112.7859,247.3303,-0.00038249,-6.366e-05,0.0,0 STARLINK-3786,1 52263U 22041C   23270.93832780 -.00006366  00000-0 -38249-3 0  9993,2 52263  53.2181 161.3335 0001611 112.7859 247.3303 15.08816468 80641,6917.952,95.439,540.932,538.703,0.0
52263.0,STARLINK-3786,PAYLOAD,2023-09-28 22:21:58,15.08840756,0.0001131,53.2162,156.8662,97.6574,262.4547,0.0001736,2.476e-05,0.0,0 STARLINK-3786,1 52263U 22041C   23271.93192526  .00002476  00000-0  17360-3 0  9998,2 52263  53.2162 156.8662 0001131  97.6574 262.4547 15.08840756 79580,6917.878,95.438,540.525,538.961,0.0
52263.0,STARLINK-3786,PAYLOAD,2023-09-29 01:32:44,15.0884423,0.0001134,53.2166,156.2695,93.0454,267.0668,0.00046591,7.136e-05,0.0,0 STARLINK-3786,1 52263U 22041C   23272.06440720  .00007136  00000-0  46591-3 0  9991,2 52263  53.2166 156.2695 0001134  93.0454 267.0668 15.08844230 80818,6917.867,95.437,540.517,538.948,0.0
52263.0,STARLINK-3786,PAYLOAD,2023-09-29 23:48:08,15.08863732,0.0001189,53.2157,152.1058,90.1918,269.9211,0.00060139,9.302e-05,0.0,0 STARLINK-3786,1 52263U 22041C   23272.99176287  .00009302  00000-0  60139-3 0  9998,2 52263  53.2157 152.1058 0001189  90.1918 269.9211 15.08863732 79742,6917.808,95.436,540.495,538.85,0.0
52263.0,STARLINK-3786,PAYLOAD,2023-09-30 09:20:27,15.0884918,0.0001444,53.2152,150.3241,74.3351,285.7801,0.00021435,3.126e-05,0.0,0 STARLINK-3786,1 52263U 22041C   23273.38920653  .00003126  00000-0  21435-3 0  9990,2 52263  53.2152 150.3241 0001444  74.3351 285.7801 15.08849180 81015,6917.852,95.437,540.716,538.718,0.0
52263.0,STARLINK-3786,PAYLOAD,2023-09-30 22:03:32,15.08834579,0.0001439,53.2163,147.9406,92.5462,267.5695,-9.1968e-05,-1.751e-05,0.0,0 STARLINK-3786,1 52263U 22041C   23273.91912923 -.00001751  00000-0 -91968-4 0  9993,2 52263  53.2163 147.9406 0001439  92.5462 267.5695 15.08834579 81094,6917.897,95.438,540.757,538.766,0.0
52263.0,STARLINK-3786,PAYLOAD,2023-10-01 09:11:14,15.08848129,0.0001472,53.2168,145.8604,86.1717,273.9444,0.00021203,3.089e-05,0.0,0 STARLINK-3786,1 52263U 22041C   23274.38280734  .00003089  00000-0  21203-3 0  9991,2 52263  53.2168 145.8604 0001472  86.1717 273.9444 15.08848129 81162,6917.856,95.437,540.739,538.702,0.0
52263.0,STARLINK-3786,PAYLOAD,2023-10-01 21:54:19,15.0885963,0.0001253,53.2147,143.4839,84.7465,275.367,0.00081762,0.00012755,0.0,0 STARLINK-3786,1 52263U 22041C   23274.91272424  .00012755  00000-0  81762-3 0  9993,2 52263  53.2147 143.4839 0001253  84.7465 275.3670 15.08859630 80035,6917.82,95.436,540.552,538.819,0.0
52263.0,STARLINK-3786,PAYLOAD,2023-10-02 01:05:05,15.08868016,0.0001326,53.2148,142.8882,85.1704,274.9439,0.0010036,0.00015733,0.0,0 STARLINK-3786,1 52263U 22041C   23275.04520151  .00015733  00000-0  10036-2 0  9995,2 52263  53.2148 142.8882 0001326  85.1704 274.9439 15.08868016 81261,6917.795,95.436,540.577,538.742,0.0
52263.0,STARLINK-3786,PAYLOAD,2023-10-02 21:45:06,15.08845793,0.0001117,53.215,139.0223,90.8334,269.2786,0.00030017,4.493e-05,0.0,0 STARLINK-3786,1 52263U 22041C   23275.90632370  .00004493  00000-0  30017-3 0  9990,2 52263  53.2150 139.0223 0001117  90.8334 269.2786 15.08845793 81394,6917.863,95.437,540.5,538.955,0.0
